House Number,Street Name,Street Type,Unit,City,State,Postal Code
1620,AZALEA,DR,A,FORT COLLINS,CO,80526
1620,AZALEA,DR,B,FORT COLLINS,CO,80526
1620,AZALEA,DR,C,FORT COLLINS,CO,80526
1620,AZALEA,DR,D,FORT COLLINS,CO,80526
1620,AZALEA,DR,E,FORT COLLINS,CO,80526
1620,AZALEA,DR,F,FORT COLLINS,CO,80526
1620,AZALEA,DR,G,FORT COLLINS,CO,80526
1620,AZALEA,DR,H,FORT COLLINS,CO,80526
1550,BLUE SPRUCE,DR,58,FORT COLLINS,CO,80524
1550,BLUE SPRUCE,DR,59,FORT COLLINS,CO,80524
1550,BLUE SPRUCE,DR,60,FORT COLLINS,CO,80524
1550,BLUE SPRUCE,DR,61,FORT COLLINS,CO,80524
1550,BLUE SPRUCE,DR,62,FORT COLLINS,CO,80524
1550,BLUE SPRUCE,DR,A1,FORT COLLINS,CO,80524
1550,BLUE SPRUCE,DR,A2,FORT COLLINS,CO,80524
1550,BLUE SPRUCE,DR,A3,FORT COLLINS,CO,80524
1550,BLUE SPRUCE,DR,A4,FORT COLLINS,CO,80524
1550,BLUE SPRUCE,DR,A5,FORT COLLINS,CO,80524
1550,BLUE SPRUCE,DR,A6,FORT COLLINS,CO,80524
1550,BLUE SPRUCE,DR,B10,FORT COLLINS,CO,80524
1550,BLUE SPRUCE,DR,B11,FORT COLLINS,CO,80524
1550,BLUE SPRUCE,DR,B12,FORT COLLINS,CO,80524
1550,BLUE SPRUCE,DR,B7,FORT COLLINS,CO,80524
1550,BLUE SPRUCE,DR,B8,FORT COLLINS,CO,80524
1550,BLUE SPRUCE,DR,B9,FORT COLLINS,CO,80524
1550,BLUE SPRUCE,DR,C13,FORT COLLINS,CO,80524
1550,BLUE SPRUCE,DR,C14,FORT COLLINS,CO,80524
1550,BLUE SPRUCE,DR,C15,FORT COLLINS,CO,80524
1550,BLUE SPRUCE,DR,C16,FORT COLLINS,CO,80524
1550,BLUE SPRUCE,DR,C17,FORT COLLINS,CO,80524
1550,BLUE SPRUCE,DR,C18,FORT COLLINS,CO,80524
1550,BLUE SPRUCE,DR,C19,FORT COLLINS,CO,80524
1550,BLUE SPRUCE,DR,C20,FORT COLLINS,CO,80524
1550,BLUE SPRUCE,DR,D21,FORT COLLINS,CO,80524
1550,BLUE SPRUCE,DR,D22,FORT COLLINS,CO,80524
1550,BLUE SPRUCE,DR,D23,FORT COLLINS,CO,80524
1550,BLUE SPRUCE,DR,D24,FORT COLLINS,CO,80524
1550,BLUE SPRUCE,DR,D25,FORT COLLINS,CO,80524
1550,BLUE SPRUCE,DR,D26,FORT COLLINS,CO,80524
1550,BLUE SPRUCE,DR,D27,FORT COLLINS,CO,80524
1550,BLUE SPRUCE,DR,D28,FORT COLLINS,CO,80524
1550,BLUE SPRUCE,DR,E29,FORT COLLINS,CO,80524
1550,BLUE SPRUCE,DR,E30,FORT COLLINS,CO,80524
1550,BLUE SPRUCE,DR,E31,FORT COLLINS,CO,80524
1550,BLUE SPRUCE,DR,E32,FORT COLLINS,CO,80524
1550,BLUE SPRUCE,DR,E33,FORT COLLINS,CO,80524
1550,BLUE SPRUCE,DR,E34,FORT COLLINS,CO,80524
1550,BLUE SPRUCE,DR,E35,FORT COLLINS,CO,80524
1550,BLUE SPRUCE,DR,E36,FORT COLLINS,CO,80524
1550,BLUE SPRUCE,DR,F37,FORT COLLINS,CO,80524
1550,BLUE SPRUCE,DR,F38,FORT COLLINS,CO,80524
1550,BLUE SPRUCE,DR,F39,FORT COLLINS,CO,80524
1550,BLUE SPRUCE,DR,F40,FORT COLLINS,CO,80524
1550,BLUE SPRUCE,DR,F41,FORT COLLINS,CO,80524
1550,BLUE SPRUCE,DR,F42,FORT COLLINS,CO,80524
1550,BLUE SPRUCE,DR,G43,FORT COLLINS,CO,80524
1550,BLUE SPRUCE,DR,G44,FORT COLLINS,CO,80524
1550,BLUE SPRUCE,DR,G45,FORT COLLINS,CO,80524
1550,BLUE SPRUCE,DR,G46,FORT COLLINS,CO,80524
1550,BLUE SPRUCE,DR,G47,FORT COLLINS,CO,80524
1550,BLUE SPRUCE,DR,G48,FORT COLLINS,CO,80524
1550,BLUE SPRUCE,DR,H49,FORT COLLINS,CO,80524
1550,BLUE SPRUCE,DR,H50,FORT COLLINS,CO,80524
1550,BLUE SPRUCE,DR,H51,FORT COLLINS,CO,80524
1550,BLUE SPRUCE,DR,H52,FORT COLLINS,CO,80524
1550,BLUE SPRUCE,DR,H53,FORT COLLINS,CO,80524
1550,BLUE SPRUCE,DR,H54,FORT COLLINS,CO,80524
1550,BLUE SPRUCE,DR,H55,FORT COLLINS,CO,80524
1550,BLUE SPRUCE,DR,H56,FORT COLLINS,CO,80524
1550,BLUE SPRUCE,DR,I57,FORT COLLINS,CO,80524
1550,BLUE SPRUCE,DR,J63,FORT COLLINS,CO,80524
1550,BLUE SPRUCE,DR,J64,FORT COLLINS,CO,80524
1550,BLUE SPRUCE,DR,J65,FORT COLLINS,CO,80524
1550,BLUE SPRUCE,DR,J66,FORT COLLINS,CO,80524
1550,BLUE SPRUCE,DR,J67,FORT COLLINS,CO,80524
1550,BLUE SPRUCE,DR,J68,FORT COLLINS,CO,80524
